NORAD_CAT_ID,OBJECT_NAME,OBJECT_TYPE,EPOCH,MEAN_MOTION,ECCENTRICITY,INCLINATION,RA_OF_ASC_NODE,ARG_OF_PERICENTER,MEAN_ANOMALY,BSTAR,MEAN_MOTION_DOT,MEAN_MOTION_DDOT,TLE_LINE0,TLE_LINE1,TLE_LINE2,SEMIMAJOR_AXIS,PERIOD,APOGEE,PERIGEE,DECAYED
50849.0,STARLINK-3311,PAYLOAD,2023-03-11 09:11:05,15.08847415,9.78e-05,53.2155,51.6531,79.5448,280.5655,0.0027535,0.00043815,0.0,0 STARLINK-3311,1 50849U 22001AY  23070.38270421  .00043815  00000-0  27535-2 0  9995,2 50849  53.2155  51.6531 0000978  79.5448 280.5655 15.08847415 65062,6917.858,95.437,540.399,539.046,0.0
50849.0,STARLINK-3311,PAYLOAD,2023-03-12 07:26:29,15.08853365,0.0001813,53.2153,47.4884,69.6696,290.449,0.0013372,0.00021065,0.0,0 STARLINK-3311,1 50849U 22001AY  23071.31006941  .00021065  00000-0  13372-2 0  9990,2 50849  53.2153  47.4884 0001813  69.6696 290.4490 15.08853365 66405,6917.84,95.437,540.959,538.45,0.0
50849.0,STARLINK-3311,PAYLOAD,2023-03-12 10:37:16,15.08863159,0.0001695,53.2171,46.8949,70.8817,289.2359,0.0014531,0.00022928,0.0,0 STARLINK-3311,1 50849U 22001AY  23071.44254647  .00022928  00000-0  14531-2 0  9999,2 50849  53.2171  46.8949 0001695  70.8817 289.2359 15.08863159 65228,6917.81,95.436,540.847,538.502,0.0
50849.0,STARLINK-3311,PAYLOAD,2023-03-12 21:44:58,15.08848896,0.0001463,53.216,44.8148,66.3091,293.8055,0.00083959,0.00013103,0.0,0 STARLINK-3311,1 50849U 22001AY  23071.90622760  .00013103  00000-0  83959-3 0  9991,2 50849  53.2160  44.8148 0001463  66.3091 293.8055 15.08848896 66497,6917.853,95.437,540.73,538.706,0.0
50849.0,STARLINK-3311,PAYLOAD,2023-03-13 07:17:16,15.08856554,0.000212,53.2152,43.0288,76.6948,283.428,0.00072339,0.00011249,0.0,0 STARLINK-3311,1 50849U 22001AY  23072.30366413  .00011249  00000-0  72339-3 0  9995,2 50849  53.2152  43.0288 0002120  76.6948 283.4280 15.08856554 65359,6917.83,95.437,541.161,538.228,0.0
50849.0,STARLINK-3311,PAYLOAD,2023-03-13 21:35:45,15.08832083,0.0001575,53.217,40.3525,90.6231,269.4941,0.00020337,2.949e-05,0.0,0 STARLINK-3311,1 50849U 22001AY  23072.89982744  .00002949  00000-0  20337-3 0  9998,2 50849  53.2170  40.3525 0001575  90.6231 269.4941 15.08832083 66649,6917.905,95.438,540.859,538.68,0.0
50849.0,STARLINK-3311,PAYLOAD,2023-03-14 07:08:04,15.08832641,0.0001234,53.2163,38.5674,103.8169,256.296,0.0006703,0.00010394,0.0,0 STARLINK-3311,1 50849U 22001AY  23073.29727118  .00010394  00000-0  67030-3 0  9999,2 50849  53.2163  38.5674 0001234 103.8169 256.2960 15.08832641 65503,6917.903,95.438,540.622,538.914,0.0
50849.0,STARLINK-3311,PAYLOAD,2023-03-14 15:05:00,15.08842065,0.0001256,53.2166,37.0812,85.1876,274.926,0.00093621,0.00014644,0.0,0 STARLINK-3311,1 50849U 22001AY  23073.62847310  .00014644  00000-0  93621-3 0  9990,2 50849  53.2166  37.0812 0001256  85.1876 274.9260 15.08842065 65551,6917.874,95.437,540.608,538.87,0.0
50849.0,STARLINK-3311,PAYLOAD,2023-03-15 03:48:05,15.08825494,0.0001612,53.2153,34.7039,82.1394,277.9781,0.00061103,9.446e-05,0.0,0 STARLINK-3311,1 50849U 22001AY  23074.15840267  .00009446  00000-0  61103-3 0  9997,2 50849  53.2153  34.7039 0001612  82.1394 277.9781 15.08825494 66830,6917.925,95.438,540.905,538.675,0.0
50849.0,STARLINK-3311,PAYLOAD,2023-03-15 06:58:52,15.08838017,0.0001668,53.2172,34.1071,85.8064,274.3118,0.00073924,0.00011496,0.0,0 STARLINK-3311,1 50849U 22001AY  23074.29088136  .00011496  00000-0  73924-3 0  9993,2 50849  53.2172  34.1071 0001668  85.8064 274.3118 15.08838017 65655,6917.886,95.438,540.905,538.598,0.0
50849.0,STARLINK-3311,PAYLOAD,2023-03-15 21:17:19,15.088663,0.0001715,53.2173,31.4313,90.4383,269.6805,0.0014498,0.00022878,0.0,0 STARLINK-3311,1 50849U 22001AY  23074.88703576  .00022878  00000-0  14498-2 0  9996,2 50849  53.2173  31.4313 0001715  90.4383 269.6805 15.08866300 65740,6917.8,95.436,540.851,538.479,0.0
50849.0,STARLINK-3311,PAYLOAD,2023-03-16 03:38:51,15.08890876,0.000158,53.2171,30.243,91.2014,268.9159,0.0018718,0.00029669,0.0,0 STARLINK-3311,1 50849U 22001AY  23075.15198679  .00029669  00000-0  18718-2 0  9993,2 50849  53.2171  30.2430 0001580  91.2014 268.9159 15.08890876 66981,6917.725,95.434,540.683,538.497,0.0
50849.0,STARLINK-3311,PAYLOAD,2023-03-16 22:43:29,15.08850921,9.72e-05,53.2173,26.6741,109.6701,250.4397,0.0010001,0.00015669,0.0,0 STARLINK-3311,1 50849U 22001AY  23075.94686684  .00015669  00000-0  10001-2 0  9990,2 50849  53.2173  26.6741 0000972 109.6701 250.4397 15.08850921 67100,6917.847,95.437,540.384,539.04,0.0
50849.0,STARLINK-3311,PAYLOAD,2023-03-17 03:29:38,15.08835984,0.0001296,53.2165,25.7833,54.6379,305.4735,0.0011408,0.00017912,0.0,0 STARLINK-3311,1 50849U 22001AY  23076.14558915  .00017912  00000-0  11408-2 0  9993,2 50849  53.2165  25.7833 0001296  54.6379 305.4735 15.08835984 67135,6917.893,95.438,540.654,538.861,0.0
50849.0,STARLINK-3311,PAYLOAD,2023-03-17 13:01:57,15.08833193,0.0001375,53.2164,23.9999,60.1293,299.9836,0.00049322,7.569e-05,0.0,0 STARLINK-3311,1 50849U 22001AY  23076.54303187  .00007569  00000-0  49322-3 0  9990,2 50849  53.2164  23.9999 0001375  60.1293 299.9836 15.08833193 67197,6917.901,95.438,540.717,538.815,0.0
50849.0,STARLINK-3311,PAYLOAD,2023-03-17 20:58:53,15.08834137,0.0001399,53.2164,22.513,62.1741,297.9393,0.00027087,4.025e-05,0.0,0 STARLINK-3311,1 50849U 22001AY  23076.87423348  .00004025  00000-0  27087-3 0  9996,2 50849  53.2164  22.5130 0001399  62.1741 297.9393 15.08834137 66043,6917.898,95.438,540.731,538.795,0.0
50849.0,STARLINK-3311,PAYLOAD,2023-03-18 12:52:45,15.08836236,0.0001789,53.2173,19.5379,70.8515,289.2671,0.00044477,6.797e-05,0.0,0 STARLINK-3311,1 50849U 22001AY  23077.53663345  .00006797  00000-0  44477-3 0  9993,2 50849  53.2173  19.5379 0001789  70.8515 289.2671 15.08836236 67341,6917.892,95.438,540.995,538.519,0.0
50849.0,STARLINK-3311,PAYLOAD,2023-03-19 12:43:31,15.0884469,0.000114,53.2161,15.082,76.7701,283.3418,0.00019852,2.873e-05,0.0,0 STARLINK-3311,1 50849U 22001AY  23078.53022965  .00002873  00000-0  19852-3 0  9991,2 50849  53.2161  15.0820 0001140  76.7701 283.3418 15.08844690 66293,6917.866,95.437,540.52,538.942,0.0
50849.0,STARLINK-3311,PAYLOAD,2023-03-20 04:37:22,15.08852529,0.0001438,53.2176,12.1068,78.616,281.4993,0.00033705,5.082e-05,0.0,0 STARLINK-3311,1 50849U 22001AY  23079.19262716  .00005082  00000-0  33705-3 0  9992,2 50849  53.2176  12.1068 0001438  78.6160 281.4993 15.08852529 67592,6917.842,95.437,540.702,538.712,0.0
50849.0,STARLINK-3311,PAYLOAD,2023-03-21 04:28:11,15.08824971,0.0001201,53.2173,7.6475,105.881,254.2315,-1.1071e-05,-4.64e-06,0.0,0 STARLINK-3311,1 50849U 22001AY  23080.18624880 -.00000464  00000-0 -11071-4 0  9991,2 50849  53.2173   7.6475 0001201 105.8810 254.2315 15.08824971 67746,6917.926,95.439,540.622,538.96,0.0
50849.0,STARLINK-3311,PAYLOAD,2023-03-22 04:18:58,15.08876836,0.0001085,53.2172,3.1836,101.7533,258.3581,0.001533,0.00024218,0.0,0 STARLINK-3311,1 50849U 22001AY  23081.17984090  .00024218  00000-0  15330-2 0  9994,2 50849  53.2172   3.1836 0001085 101.7533 258.3581 15.08876836 67897,6917.768,95.435,540.383,538.882,0.0
50849.0,STARLINK-3311,PAYLOAD,2023-03-22 21:48:12,15.08872911,8.89e-05,53.2174,359.9135,102.6778,257.4313,0.0009771,0.00015311,0.0,0 STARLINK-3311,1 50849U 22001AY  23081.90847625  .00015311  00000-0  97710-3 0  9994,2 50849  53.2174 359.9135 0000889 102.6778 257.4313 15.08872911 66808,6917.78,95.435,540.26,539.03,0.0
50849.0,STARLINK-3311,PAYLOAD,2023-03-23 04:09:44,15.08876037,8.1e-05,53.2173,358.7262,93.179,266.9295,0.0018447,0.00029221,0.0,0 STARLINK-3311,1 50849U 22001AY  23082.17343327  .00029221  00000-0  18447-2 0  9998,2 50849  53.2173 358.7262 0000810  93.1790 266.9295 15.08876037 68042,6917.77,95.435,540.196,539.075,0.0
50849.0,STARLINK-3311,PAYLOAD,2023-03-23 21:38:59,15.0885604,0.0001605,53.2167,355.4431,118.401,241.7144,0.0016071,0.00025393,0.0,0 STARLINK-3311,1 50849U 22001AY  23082.90207567  .00025393  00000-0  16071-2 0  9991,2 50849  53.2167 355.4431 0001605 118.4010 241.7144 15.08856040 66950,6917.831,95.437,540.807,538.586,0.0
50849.0,STARLINK-3311,PAYLOAD,2023-03-24 04:00:31,15.08941532,0.0001262,53.2172,354.2627,53.6145,306.4964,0.0071935,0.00116417,0.0,0 STARLINK-3311,1 50849U 22001AY  23083.16703082  .00116417  00000-0  71935-2 0  9991,2 50849  53.2172 354.2627 0001262  53.6145 306.4964 15.08941532 68196,6917.57,95.431,540.308,538.562,0.0
50849.0,STARLINK-3311,PAYLOAD,2023-03-24 21:29:44,15.08892115,0.0001121,53.2165,350.9934,75.6878,284.4238,0.0017159,0.00027165,0.0,0 STARLINK-3311,1 50849U 22001AY  23083.89565677  .00027165  00000-0  17159-2 0  9996,2 50849  53.2165 350.9934 0001121  75.6878 284.4238 15.08892115 68307,6917.721,95.434,540.362,538.811,0.0
50849.0,STARLINK-3311,PAYLOAD,2023-03-25 00:40:30,15.08906631,0.0001119,53.2166,350.3991,84.5038,275.6081,0.002481,0.00039491,0.0,0 STARLINK-3311,1 50849U 22001AY  23084.02813145  .00039491  00000-0  24810-2 0  9995,2 50849  53.2166 350.3991 0001119  84.5038 275.6081 15.08906631 68328,6917.677,95.433,540.316,538.768,0.0
50849.0,STARLINK-3311,PAYLOAD,2023-03-25 21:20:33,15.08825857,0.0001293,53.2163,346.5321,119.0587,241.0535,0.0018059,0.00028559,0.0,0 STARLINK-3311,1 50849U 22001AY  23084.88927302  .00028559  00000-0  18059-2 0  9991,2 50849  53.2163 346.5321 0001293 119.0587 241.0535 15.08825857 68450,6917.924,95.438,540.683,538.894,0.0
50849.0,STARLINK-3311,PAYLOAD,2023-03-26 03:42:06,15.08786596,0.00012,53.2167,345.3431,93.9807,266.1322,0.0015318,0.00024139,0.0,0 STARLINK-3311,1 50849U 22001AY  23085.15424504  .00024139  00000-0  15318-2 0  9993,2 50849  53.2167 345.3431 0001200  93.9807 266.1322 15.08786596 68498,6918.044,95.441,540.739,539.078,0.0
50849.0,STARLINK-3311,PAYLOAD,2023-03-26 22:46:45,15.08843912,0.0001094,53.2165,341.775,97.2385,262.8732,0.0020827,0.00033017,0.0,0 STARLINK-3311,1 50849U 22001AY  23085.94913553  .00033017  00000-0  20827-2 0  9993,2 50849  53.2165 341.7750 0001094  97.2385 262.8732 15.08843912 67414,6917.868,95.437,540.49,538.977,0.0
